start=new Date('2021-12-15T00:00:00.000Z').valueOf();
sats=[{"REV_AT_EPOCH":"8610","NORAD_CAT_ID":"45711","ECCENTRICITY":"0.00019240","FILE":"3240057","MEAN_ANOMALY":"273.5076","DECAY_DATE":null,"GP_ID":"191693922","CENTER_NAME":"EARTH","PERIOD":"95.592","INCLINATION":"53.0535","EPOCH":"2021-12-14T12:48:21.815712","COUNTRY_CODE":"US","TIME_SYSTEM":"UTC","OBJECT_ID":"2020-035BG","MEAN_MOTION":"15.06395677","RA_OF_ASC_NODE":"137.5906","TLE_LINE1":"1 45711U 20035BG  21348.53358583  .00000407  00000-0  46248-4 0  9995","ARG_OF_PERICENTER":"86.6133","OBJECT_NAME":"STARLINK-1433","PERIAPSIS":"545.894","MEAN_MOTION_DOT":"0.00000407","RCS_SIZE":"LARGE","BSTAR":"0.00004624800000","LAUNCH_DATE":"2020-06-04","MEAN_MOTION_DDOT":"0.0000000000000","ELEMENT_SET_NO":"999","SITE":"AFETR","TLE_LINE2":"2 45711  53.0535 137.5906 0001924  86.6133 273.5076 15.06395677 86109","REF_FRAME":"TEME","MEAN_ELEMENT_THEORY":"SGP4","APOAPSIS":"548.559","CLASSIFICATION_TYPE":"U","SEMIMAJOR_AXIS":"6925.362","EPHEMERIS_TYPE":"0","OBJECT_TYPE":"PAYLOAD"},{"APOAPSIS":"548.595","MEAN_ELEMENT_THEORY":"SGP4","REF_FRAME":"TEME","SITE":"AFETR","TLE_LINE2":"2 45712  53.0542 137.6060 0001951  98.1790 261.9420 15.06390063 86116","ELEMENT_SET_NO":"999","MEAN_MOTION_DDOT":"0.0000000000000","OBJECT_TYPE":"PAYLOAD","SEMIMAJOR_AXIS":"6925.379","CLASSIFICATION_TYPE":"U","EPHEMERIS_TYPE":"0","BSTAR":"0.00005035500000","RCS_SIZE":"LARGE","PERIAPSIS":"545.893","MEAN_MOTION_DOT":"0.00000468","OBJECT_NAME":"STARLINK-1434","ARG_OF_PERICENTER":"98.1790","LAUNCH_DATE":"2020-06-04","TIME_SYSTEM":"UTC","COUNTRY_CODE":"US","EPOCH":"2021-12-14T12:43:05.049120","PERIOD":"95.593","INCLINATION":"53.0542","TLE_LINE1":"1 45712U 20035BH  21348.52991955  .00000468  00000-0  50355-4 0  9992","OBJECT_ID":"2020-035BH","MEAN_MOTION":"15.06390063","RA_OF_ASC_NODE":"137.6060","ECCENTRICITY":"0.00019510","NORAD_CAT_ID":"45712","REV_AT_EPOCH":"8611","GP_ID":"191692171","CENTER_NAME":"EARTH","DECAY_DATE":null,"MEAN_ANOMALY":"261.9420","FILE":"3240057"},{"ECCENTRICITY":"0.00020750","NORAD_CAT_ID":"45713","REV_AT_EPOCH":"8545","CENTER_NAME":"EARTH","GP_ID":"191699812","DECAY_DATE":null,"MEAN_ANOMALY":"267.1190","FILE":"3240193","TIME_SYSTEM":"UTC","COUNTRY_CODE":"US","EPOCH":"2021-12-14T17:58:52.830912","INCLINATION":"53.0528","PERIOD":"95.592","TLE_LINE1":"1 45713U 20035BJ  21348.74922258  .00000456  00000-0  49525-4 0  9991","MEAN_MOTION":"15.06401758","OBJECT_ID":"2020-035BJ","RA_OF_ASC_NODE":"156.6216","BSTAR":"0.00004952500000","RCS_SIZE":"LARGE","MEAN_MOTION_DOT":"0.00000456","PERIAPSIS":"545.771","OBJECT_NAME":"STARLINK-1436","ARG_OF_PERICENTER":"93.0037","LAUNCH_DATE":"2020-06-04","APOAPSIS":"548.645","MEAN_ELEMENT_THEORY":"SGP4","REF_FRAME":"TEME","TLE_LINE2":"2 45713  53.0528 156.6216 0002075  93.0037 267.1190 15.06401758 85453","SITE":"AFETR","ELEMENT_SET_NO":"999","MEAN_MOTION_DDOT":"0.0000000000000","OBJECT_TYPE":"PAYLOAD","EPHEMERIS_TYPE":"0","SEMIMAJOR_AXIS":"6925.343","CLASSIFICATION_TYPE":"U"},{"LAUNCH_DATE":"2020-06-04","PERIAPSIS":"545.918","MEAN_MOTION_DOT":"-0.00000076","ARG_OF_PERICENTER":"99.4530","OBJECT_NAME":"STARLINK-1437","RCS_SIZE":"LARGE","BSTAR":"0.00001380000000","EPHEMERIS_TYPE":"0","SEMIMAJOR_AXIS":"6925.389","CLASSIFICATION_TYPE":"U","OBJECT_TYPE":"PAYLOAD","ELEMENT_SET_NO":"999","TLE_LINE2":"2 45714  53.0535 137.5583 0001930  99.4530 260.6677 15.06386767 86118","SITE":"AFETR","MEAN_MOTION_DDOT":"0.0000000000000","APOAPSIS":"548.591","MEAN_ELEMENT_THEORY":"SGP4","REF_FRAME":"TEME","DECAY_DATE":null,"FILE":"3240057","MEAN_ANOMALY":"260.6677","GP_ID":"191693672","CENTER_NAME":"EARTH","ECCENTRICITY":"0.00019300","REV_AT_EPOCH":"8611","NORAD_CAT_ID":"45714","OBJECT_ID":"2020-035BK","RA_OF_ASC_NODE":"137.5583","MEAN_MOTION":"15.06386767","TLE_LINE1":"1 45714U 20035BK  21348.54096533 -.00000076  00000-0  13800-4 0  9994","PERIOD":"95.593","INCLINATION":"53.0535","EPOCH":"2021-12-14T12:58:59.404512","COUNTRY_CODE":"US","TIME_SYSTEM":"UTC"},{"ELEMENT_SET_NO":"999","SITE":"AFETR","TLE_LINE2":"2 45716  53.0008 331.7474 0006967  96.4310 263.7503 15.76849226 88407","MEAN_MOTION_DDOT":"0.0000000000000","APOAPSIS":"344.056","REF_FRAME":"TEME","MEAN_ELEMENT_THEORY":"SGP4","SEMIMAJOR_AXIS":"6717.511","EPHEMERIS_TYPE":"0","CLASSIFICATION_TYPE":"U","OBJECT_TYPE":"PAYLOAD","PERIAPSIS":"334.696","MEAN_MOTION_DOT":"0.00028866","ARG_OF_PERICENTER":"96.4310","OBJECT_NAME":"STARLINK-1439","RCS_SIZE":"LARGE","BSTAR":"0.00017858000000","LAUNCH_DATE":"2020-06-04","PERIOD":"91.321","INCLINATION":"53.0008","EPOCH":"2021-12-14T08:58:38.641440","COUNTRY_CODE":"US","TIME_SYSTEM":"UTC","MEAN_MOTION":"15.76849226","OBJECT_ID":"2020-035BM","RA_OF_ASC_NODE":"331.7474","TLE_LINE1":"1 45716U 20035BM  21348.37405835  .00028866  00000-0  17858-3 0  9998","ECCENTRICITY":"0.00069670","REV_AT_EPOCH":"8840","NORAD_CAT_ID":"45716","DECAY_DATE":null,"FILE":"3240057","MEAN_ANOMALY":"263.7503","GP_ID":"191693423","CENTER_NAME":"EARTH"},{"RCS_SIZE":"LARGE","BSTAR":"-0.00001899100000","PERIAPSIS":"545.990","MEAN_MOTION_DOT":"-0.00000564","ARG_OF_PERICENTER":"61.5635","OBJECT_NAME":"STARLINK-1461","LAUNCH_DATE":"2020-06-13","APOAPSIS":"548.466","MEAN_ELEMENT_THEORY":"SGP4","REF_FRAME":"TEME","ELEMENT_SET_NO":"999","TLE_LINE2":"2 45730  53.0549 338.3842 0001788  61.5635 298.5534 15.06395272 83139","SITE":"AFETR","MEAN_MOTION_DDOT":"0.0000000000000","OBJECT_TYPE":"PAYLOAD","EPHEMERIS_TYPE":"0","SEMIMAJOR_AXIS":"6925.363","CLASSIFICATION_TYPE":"U","ECCENTRICITY":"0.00017880","REV_AT_EPOCH":"8313","NORAD_CAT_ID":"45730","CENTER_NAME":"EARTH","GP_ID":"191692172","DECAY_DATE":null,"FILE":"3240057","MEAN_ANOMALY":"298.5534","COUNTRY_CODE":"US","EPOCH":"2021-12-14T08:28:17.310432","TIME_SYSTEM":"UTC","PERIOD":"95.592","INCLINATION":"53.0549","TLE_LINE1":"1 45730U 20038A   21348.35297813 -.00000564  00000-0 -18991-4 0  9997","RA_OF_ASC_NODE":"338.3842","OBJECT_ID":"2020-038A","MEAN_MOTION":"15.06395272"},{"PERIOD":"95.592","INCLINATION":"53.0551","TIME_SYSTEM":"UTC","EPOCH":"2021-12-14T12:00:35.559648","COUNTRY_CODE":"US","OBJECT_ID":"2020-038B","MEAN_MOTION":"15.06394944","RA_OF_ASC_NODE":"337.7389","TLE_LINE1":"1 45731U 20038B   21348.50041157 -.00000623  00000-0 -22944-4 0  9992","NORAD_CAT_ID":"45731","REV_AT_EPOCH":"8314","ECCENTRICITY":"0.00020230","MEAN_ANOMALY":"305.2863","FILE":"3240057","DECAY_DATE":null,"GP_ID":"191692422","CENTER_NAME":"EARTH","MEAN_MOTION_DDOT":"0.0000000000000","TLE_LINE2":"2 45731  53.0551 337.7389 0002023  54.8315 305.2863 15.06394944 83142","SITE":"AFETR","ELEMENT_SET_NO":"999","REF_FRAME":"TEME","MEAN_ELEMENT_THEORY":"SGP4","APOAPSIS":"548.630","SEMIMAJOR_AXIS":"6925.364","CLASSIFICATION_TYPE":"U","EPHEMERIS_TYPE":"0","OBJECT_TYPE":"PAYLOAD","OBJECT_NAME":"STARLINK-1465","ARG_OF_PERICENTER":"54.8315","PERIAPSIS":"545.828","MEAN_MOTION_DOT":"-0.00000623","BSTAR":"-0.00002294400000","RCS_SIZE":"LARGE","LAUNCH_DATE":"2020-06-13"},{"BSTAR":"0.00000425010000","RCS_SIZE":"LARGE","OBJECT_NAME":"STARLINK-1466","ARG_OF_PERICENTER":"63.9176","MEAN_MOTION_DOT":"-0.00000218","PERIAPSIS":"546.037","LAUNCH_DATE":"2020-06-13","REF_FRAME":"TEME","MEAN_ELEMENT_THEORY":"SGP4","APOAPSIS":"548.562","MEAN_MOTION_DDOT":"0.0000000000000","TLE_LINE2":"2 45732  53.0553 336.8859 0001823  63.9176 296.2000 15.06371937 84296","SITE":"AFETR","ELEMENT_SET_NO":"999","OBJECT_TYPE":"PAYLOAD","EPHEMERIS_TYPE":"0","SEMIMAJOR_AXIS":"6925.435","CLASSIFICATION_TYPE":"U","NORAD_CAT_ID":"45732","REV_AT_EPOCH":"8429","ECCENTRICITY":"0.00018230","GP_ID":"191698562","CENTER_NAME":"EARTH","MEAN_ANOMALY":"296.2000","FILE":"3240130","DECAY_DATE":null,"TIME_SYSTEM":"UTC","COUNTRY_CODE":"US","EPOCH":"2021-12-14T16:31:18.516000","INCLINATION":"53.0553","PERIOD":"95.594","TLE_LINE1":"1 45732U 20038C   21348.68840875 -.00000218  00000-0  42501-5 0  9997","RA_OF_ASC_NODE":"336.8859","MEAN_MOTION":"15.06371937","OBJECT_ID":"2020-038C"},{"TIME_SYSTEM":"UTC","EPOCH":"2021-12-14T11:55:17.254272","COUNTRY_CODE":"US","PERIOD":"95.592","INCLINATION":"53.0559","TLE_LINE1":"1 45733U 20038D   21348.49672748 -.00000269  00000-0  88592-6 0  9996","RA_OF_ASC_NODE":"337.7585","MEAN_MOTION":"15.06399074","OBJECT_ID":"2020-038D","NORAD_CAT_ID":"45733","REV_AT_EPOCH":"8314","ECCENTRICITY":"0.00020330","GP_ID":"191693424","CENTER_NAME":"EARTH","MEAN_ANOMALY":"307.6352","FILE":"3240057","DECAY_DATE":null,"MEAN_ELEMENT_THEORY":"SGP4","REF_FRAME":"TEME","APOAPSIS":"548.624","MEAN_MOTION_DDOT":"0.0000000000000","TLE_LINE2":"2 45733  53.0559 337.7585 0002033  52.4822 307.6352 15.06399074 83146","SITE":"AFETR","ELEMENT_SET_NO":"999","OBJECT_TYPE":"PAYLOAD","SEMIMAJOR_AXIS":"6925.351","CLASSIFICATION_TYPE":"U","EPHEMERIS_TYPE":"0","BSTAR":"0.00000088592000","RCS_SIZE":"LARGE","OBJECT_NAME":"STARLINK-1467","ARG_OF_PERICENTER":"52.4822","MEAN_MOTION_DOT":"-0.00000269","PERIAPSIS":"545.808","LAUNCH_DATE":"2020-06-13"},{"MEAN_MOTION_DDOT":"0.0000000000000","ELEMENT_SET_NO":"999","TLE_LINE2":"2 45734  53.0552 336.9310 0001821  58.3016 301.8150 15.06403399 84285","SITE":"AFETR","REF_FRAME":"TEME","MEAN_ELEMENT_THEORY":"SGP4","APOAPSIS":"548.464","CLASSIFICATION_TYPE":"U","SEMIMAJOR_AXIS":"6925.338","EPHEMERIS_TYPE":"0","OBJECT_TYPE":"PAYLOAD","ARG_OF_PERICENTER":"58.3016","OBJECT_NAME":"STARLINK-1468","PERIAPSIS":"545.942","MEAN_MOTION_DOT":"0.00001478","RCS_SIZE":"LARGE","BSTAR":"0.00011812000000","LAUNCH_DATE":"2020-06-13","INCLINATION":"53.0552","PERIOD":"95.592","EPOCH":"2021-12-14T16:15:21.743136","COUNTRY_CODE":"US","TIME_SYSTEM":"UTC","OBJECT_ID":"2020-038E","MEAN_MOTION":"15.06403399","RA_OF_ASC_NODE":"336.9310","TLE_LINE1":"1 45734U 20038E   21348.67733499  .00001478  00000-0  11812-3 0  9998","REV_AT_EPOCH":"8428","NORAD_CAT_ID":"45734","ECCENTRICITY":"0.00018210","FILE":"3240135","MEAN_ANOMALY":"301.8150","DECAY_DATE":null,"GP_ID":"191699074","CENTER_NAME":"EARTH"}];
